STARLINK-1368           
1 45540U 20025K   26068.79613205  .00000438  00000+0  26925-4 0  9994
2 45540  53.1591 100.8341 0001432  90.6838 269.4327 15.30194629325187
NUSAT-49 (KLARA DAN VO*)
1 60500U 24149AJ  26068.79810190  .00012912  00000+0  43568-3 0  9991
2 60500  97.3807 150.7380 0001132 286.7761  73.3356 15.30828857 86935
